{"type": "FeatureCollection", "features": [ {"type": "Feature", "properties": {"norad_id": 65943, "name": "E-KAGAKU-1", "group": "stations", "lat": -8.390620960273067, "lon": -3.4034645391566647, "alt_km": 392.0495794202825, "timestamp": "2025-12-06T18:50:08.975756+00:00", "meta": {"OBJECT_NAME": "E-KAGAKU-1", "OBJECT_ID": "1998-067XQ", "EPOCH": "2025-12-05T20:28:25.846752", "MEAN_MOTION": 15.58235285, "ECCENTRICITY": 0.00033373, "INCLINATION": 51.6291, "RA_OF_ASC_NODE": 174.5622, "ARG_OF_PERICENTER": 163.5442, "MEAN_ANOMALY": 196.5659, "EPHEMERIS_TYPE": 0, "CLASSIFICATION_TYPE": "U", "NORAD_CAT_ID": 65943, "ELEMENT_SET_NO": 999, "REV_AT_EPOCH": 878, "BSTAR": 0.00098694907, "MEAN_MOTION_DOT": 0.00076316, "MEAN_MOTION_DDOT": 0}, "tle": {"line1": "1 65943U 98067XQ  25339.85307693  .00076316  00000+0  98695-3 0  9992", "line2": "2 65943  51.6291 174.5622 0003337 163.5442 196.5659 15.58235285  8789"}}, "geometry": {"type": "Point", "coordinates": [-3.4034645391566647, -8.390620960273067]}}, {"type": "Feature", "properties": {"norad_id": 66052, "name": "HRC MONOBLOCK CAMERA", "group": "stations", "lat": -49.71413611736931, "lon": 101.99274441959224, "alt_km": 412.42784866390775, "timestamp": "2025-12-06T18:50:08.975768+00:00", "meta": {"OBJECT_NAME": "HRC MONOBLOCK CAMERA", "OBJECT_ID": "1998-067XR", "EPOCH": "2025-12-05T21:33:04.932864", "MEAN_MOTION": 15.5347422, "ECCENTRICITY": 0.00041965, "INCLINATION": 51.6285, "RA_OF_ASC_NODE": 175.6042, "ARG_OF_PERICENTER": 157.7899, "MEAN_ANOMALY": 202.3273, "EPHEMERIS_TYPE": 0, "CLASSIFICATION_TYPE": "U", "NORAD_CAT_ID": 66052, "ELEMENT_SET_NO": 999, "REV_AT_EPOCH": 777, "BSTAR": 0.00068980768, "MEAN_MOTION_DOT": 0.00044373, "MEAN_MOTION_DDOT": 0}, "tle": {"line1": "1 66052U 98067XR  25339.89797376  .00044373  00000+0  68981-3 0  9992", "line2": "2 66052  51.6285 175.6042 0004196 157.7899 202.3273 15.53474220  7772"}}, "geometry": {"type": "Point", "coordinates": [101.99274441959224, -49.71413611736931]}}, {"type": "Feature", "properties": {"norad_id": 66174, "name": "HTV-X1", "group": "stations", "lat": -51.60912978974439, "lon": 82.31607962941246, "alt_km": 421.84371193575953, "timestamp": "2025-12-06T18:50:08.975778+00:00", "meta": {"OBJECT_NAME": "HTV-X1", "OBJECT_ID": "2025-241A", "EPOCH": "2025-12-06T00:38:46.837536", "MEAN_MOTION": 15.49350538, "ECCENTRICITY": 0.00036145, "INCLINATION": 51.6296, "RA_OF_ASC_NODE": 175.7148, "ARG_OF_PERICENTER": 210.2448, "MEAN_ANOMALY": 149.8333, "EPHEMERIS_TYPE": 0, "CLASSIFICATION_TYPE": "U", "NORAD_CAT_ID": 66174, "ELEMENT_SET_NO": 999, "REV_AT_EPOCH": 51, "BSTAR": 0.00025885847, "MEAN_MOTION_DOT": 0.00014013, "MEAN_MOTION_DDOT": 0}, "tle": {"line1": "1 66174U 25241A   25340.02693099  .00014013  00000+0  25886-3 0  9990", "line2": "2 66174  51.6296 175.7148 0003614 210.2448 149.8333 15.49350538   513"}}, "geometry": {"type": "Point", "coordinates": [82.31607962941246, -51.60912978974439]}}, {"type": "Feature", "properties": {"norad_id": 66515, "name": "SZ-21 MODULE", "group": "stations", "lat": -3.8531724046246287, "lon": 47.98522821871004, "alt_km": 384.1117987960424, "timestamp": "2025-12-06T18:50:08.975788+00:00", "meta": {"OBJECT_NAME": "SZ-21 MODULE", "OBJECT_ID": "2025-246C", "EPOCH": "2025-12-05T12:10:17.025600", "MEAN_MOTION": 15.61972458, "ECCENTRICITY": 0.000603, "INCLINATION": 41.4776, "RA_OF_ASC_NODE": 60.1494, "ARG_OF_PERICENTER": 219.3277, "MEAN_ANOMALY": 140.7125, "EPHEMERIS_TYPE": 0, "CLASSIFICATION_TYPE": "U", "NORAD_CAT_ID": 66515, "ELEMENT_SET_NO": 999, "REV_AT_EPOCH": 331, "BSTAR": 0.00043081448, "MEAN_MOTION_DOT": 0.00038539, "MEAN_MOTION_DDOT": 0}, "tle": {"line1": "1 66515U 25246C   25339.50714150  .00038539  00000+0  43081-3 0  9993", "line2": "2 66515  41.4776  60.1494 0006030 219.3277 140.7125 15.61972458  3313"}}, "geometry": {"type": "Point", "coordinates": [47.98522821871004, -3.8531724046246287]}}, {"type": "Feature", "properties": {"norad_id": 66645, "name": "SHENZHOU-22", "group": "stations", "lat": 15.263373020761833, "lon": -145.15090036110928, "alt_km": 394.92211245706676, "timestamp": "2025-12-06T18:50:08.975798+00:00", "meta": {"OBJECT_NAME": "SHENZHOU-22", "OBJECT_ID": "2025-272A", "EPOCH": "2025-12-06T05:51:59.537376", "MEAN_MOTION": 15.58781586, "ECCENTRICITY": 0.00096041, "INCLINATION": 41.4683, "RA_OF_ASC_NODE": 56.1283, "ARG_OF_PERICENTER": 339.9163, "MEAN_ANOMALY": 20.1296, "EPHEMERIS_TYPE": 0, "CLASSIFICATION_TYPE": "U", "NORAD_CAT_ID": 66645, "ELEMENT_SET_NO": 999, "REV_AT_EPOCH": 26295, "BSTAR": 0.00042196391, "MEAN_MOTION_DOT": 0.00033378, "MEAN_MOTION_DDOT": 0}, "tle": {"line1": "1 66645U 25272A   25340.24443909  .00033378  00000+0  42196-3 0  9992", "line2": "2 66645  41.4683  56.1283 0009604 339.9163  20.1296 15.58781586262951"}}, "geometry": {"type": "Point", "coordinates": [-145.15090036110928, 15.263373020761833]}}, {"type": "Feature", "properties": {"norad_id": 66646, "name": "CZ-2F R/B", "group": "stations", "lat": -16.922238720470215, "lon": -112.68503742504237, "alt_km": 159.59923815496768, "timestamp": "2025-12-06T18:50:08.975809+00:00", "meta": {"OBJECT_NAME": "CZ-2F R/B", "OBJECT_ID": "2025-272B", "EPOCH": "2025-12-06T13:35:24.857088", "MEAN_MOTION": 16.31678706, "ECCENTRICITY": 0.0043357, "INCLINATION": 41.4545, "RA_OF_ASC_NODE": 48.6295, "ARG_OF_PERICENTER": 218.7676, "MEAN_ANOMALY": 141.0074, "EPHEMERIS_TYPE": 0, "CLASSIFICATION_TYPE": "U", "NORAD_CAT_ID": 66646, "ELEMENT_SET_NO": 999, "REV_AT_EPOCH": 184, "BSTAR": 0.00051304, "MEAN_MOTION_DOT": 0.04092522, "MEAN_MOTION_DDOT": 7.8194e-06}, "tle": {"line1": "1 66646U 25272B   25340.56625992  .04092522  78194-5  51304-3 0  9998", "line2": "2 66646  41.4545  48.6295 0043357 218.7676 141.0074 16.31678706  1841"}}, "geometry": {"type": "Point", "coordinates": [-112.68503742504237, -16.922238720470215]}}, {"type": "Feature", "properties": {"norad_id": 66664, "name": "SOYUZ-MS 28", "group": "stations", "lat": -51.609129776904936, "lon": 82.31608388559907, "alt_km": 421.8437120306371, "timestamp": "2025-12-06T18:50:08.975819+00:00", "meta": {"OBJECT_NAME": "SOYUZ-MS 28", "OBJECT_ID": "2025-275A", "EPOCH": "2025-12-06T00:38:46.837536", "MEAN_MOTION": 15.49350538, "ECCENTRICITY": 0.00036145, "INCLINATION": 51.6296, "RA_OF_ASC_NODE": 175.7148, "ARG_OF_PERICENTER": 210.2448, "MEAN_ANOMALY": 149.8333, "EPHEMERIS_TYPE": 0, "CLASSIFICATION_TYPE": "U", "NORAD_CAT_ID": 66664, "ELEMENT_SET_NO": 999, "REV_AT_EPOCH": 128, "BSTAR": 0.00025885847, "MEAN_MOTION_DOT": 0.00014013, "MEAN_MOTION_DDOT": 0}, "tle": {"line1": "1 66664U 25275A   25340.02693099  .00014013  00000+0  25886-3 0  9991", "line2": "2 66664  51.6296 175.7148 0003614 210.2448 149.8333 15.49350538  1282"}}, "geometry": {"type": "Point", "coordinates": [82.31608388559907, -51.609129776904936]}}, {"type": "Feature", "properties": {"norad_id": 66906, "name": "1998-067XS", "group": "stations", "lat": -50.35374599498437, "lon": 98.96439641987823, "alt_km": 421.5890008377901, "timestamp": "2025-12-06T18:50:08.975829+00:00", "meta": {"OBJECT_NAME": "1998-067XS", "OBJECT_ID": "1998-067XS", "EPOCH": "2025-12-06T00:36:35.431776", "MEAN_MOTION": 15.50078443, "ECCENTRICITY": 0.00042467, "INCLINATION": 51.6295, "RA_OF_ASC_NODE": 175.7046, "ARG_OF_PERICENTER": 174.3007, "MEAN_ANOMALY": 185.803, "EPHEMERIS_TYPE": 0, "CLASSIFICATION_TYPE": "U", "NORAD_CAT_ID": 66906, "ELEMENT_SET_NO": 999, "REV_AT_EPOCH": 57, "BSTAR": 0.00063992594, "MEAN_MOTION_DOT": 0.00036342, "MEAN_MOTION_DDOT": 0}, "tle": {"line1": "1 66906U 98067XS  25340.02541009  .00036342  00000+0  63993-3 0  9992", "line2": "2 66906  51.6295 175.7046 0004246 174.3007 185.8030 15.50078443   579"}}, "geometry": {"type": "Point", "coordinates": [98.96439641987823, -50.35374599498437]}}, {"type": "Feature", "properties": {"norad_id": 66907, "name": "1998-067XT", "group": "stations", "lat": -49.72408141702736, "lon": 102.69379453977766, "alt_km": 419.88967022129964, "timestamp": "2025-12-06T18:50:08.975839+00:00", "meta": {"OBJECT_NAME": "1998-067XT", "OBJECT_ID": "1998-067XT", "EPOCH": "2025-12-05T23:03:20.722464", "MEAN_MOTION": 15.50347782, "ECCENTRICITY": 0.00053008, "INCLINATION": 51.6292, "RA_OF_ASC_NODE": 176.0227, "ARG_OF_PERICENTER": 190.4344, "MEAN_ANOMALY": 169.6536, "EPHEMERIS_TYPE": 0, "CLASSIFICATION_TYPE": "U", "NORAD_CAT_ID": 66907, "ELEMENT_SET_NO": 999, "REV_AT_EPOCH": 56, "BSTAR": 0.0012672984, "MEAN_MOTION_DOT": 0.00073478, "MEAN_MOTION_DDOT": 0}, "tle": {"line1": "1 66907U 98067XT  25339.96065651  .00073478  00000+0  12673-2 0  9997", "line2": "2 66907  51.6292 176.0227 0005300 190.4344 169.6536 15.50347782   562"}}, "geometry": {"type": "Point", "coordinates": [102.69379453977766, -49.72408141702736]}}, {"type": "Feature", "properties": {"norad_id": 66908, "name": "1998-067XU", "group": "stations", "lat": -49.517757705658994, "lon": 103.7646060695248, "alt_km": 419.81600530531887, "timestamp": "2025-12-06T18:50:08.975849+00:00", "meta": {"OBJECT_NAME": "1998-067XU", "OBJECT_ID": "1998-067XU", "EPOCH": "2025-12-06T00:36:01.329696", "MEAN_MOTION": 15.50421337, "ECCENTRICITY": 0.00055167, "INCLINATION": 51.6293, "RA_OF_ASC_NODE": 175.7016, "ARG_OF_PERICENTER": 189.9081, "MEAN_ANOMALY": 170.1801, "EPHEMERIS_TYPE": 0, "CLASSIFICATION_TYPE": "U", "NORAD_CAT_ID": 66908, "ELEMENT_SET_NO": 999, "REV_AT_EPOCH": 57, "BSTAR": 0.0011822009, "MEAN_MOTION_DOT": 0.00068654, "MEAN_MOTION_DDOT": 0}, "tle": {"line1": "1 66908U 98067XU  25340.02501539  .00068654  00000+0  11822-2 0  9992", "line2": "2 66908  51.6293 175.7016 0005516 189.9081 170.1801 15.50421337   578"}}, "geometry": {"type": "Point", "coordinates": [103.7646060695248, -49.517757705658994]}}]}